OBJECT_NAME,OBJECT_ID,EPOCH,MEAN_MOTION,ECCENTRICITY,INCLINATION,RA_OF_ASC_NODE,ARG_OF_PERICENTER,MEAN_ANOMALY,EPHEMERIS_TYPE,CLASSIFICATION_TYPE,NORAD_CAT_ID,ELEMENT_SET_NO,REV_AT_EPOCH,BSTAR,MEAN_MOTION_DOT,MEAN_MOTION_DDOT
ONEWEB-0232,2021-045Q,2026-06-17T07:08:52.509408,13.15549813,.00020033,87.9011,259.1617,103.1672,256.9682,0,U,48781,999,24466,.23630041E-3,.102E-5,0
ONEWEB-0231,2021-045R,2026-06-16T23:18:51.338592,13.15548800,.00017984,87.9008,259.2399,106.0835,254.0493,0,U,48782,999,24431,-.27449933E-3,-.91E-6,0
ONEWEB-0234,2021-045S,2026-06-17T07:31:30.952416,13.15548988,.00027501,87.9010,259.1532,109.4765,250.6662,0,U,48783,999,24449,.62512821E-3,.248E-5,0
ONEWEB-0238,2021-045T,2026-06-17T07:31:54.152544,13.15547329,.00023538,87.9015,259.1477,106.9794,253.1595,0,U,48784,999,24439,.49589445E-3,.2E-5,0
ONEWEB-0240,2021-045U,2026-06-16T22:54:53.846496,13.15548788,.00018954,87.9016,259.2291,110.7622,249.3712,0,U,48785,999,24437,.29791454E-3,.125E-5,0
ONEWEB-0246,2021-045V,2026-06-16T22:46:55.337376,13.15549069,.00018707,87.9012,259.2350,98.7976,261.3366,0,U,48786,999,24424,.79444409E-4,.43E-6,0
ONEWEB-0210,2021-045W,2026-06-17T07:17:59.687520,13.15550721,.00011325,87.9012,259.1613,92.3367,267.7893,0,U,48787,999,24433,.23322936E-3,.101E-5,0
ONEWEB-0214,2021-045X,2026-06-17T07:30:34.140096,13.15549146,.00018202,87.9013,259.1564,91.1962,268.9377,0,U,48788,999,24430,.54526525E-3,.218E-5,0
ONEWEB-0221,2021-045Y,2026-06-17T00:22:45.313536,13.15547779,.0001782,87.9014,259.2243,104.3392,255.7936,0,U,48789,999,24435,.51680499E-3,.207E-5,0
ONEWEB-0213,2021-045Z,2026-06-17T07:24:51.440544,13.15547360,.0001688,87.9011,259.1691,103.2627,256.8692,0,U,48790,999,24445,.50026744E-3,.201E-5,0
ONEWEB-0212,2021-045AA,2026-06-16T23:33:41.104800,13.15550062,.00020237,87.9011,259.2286,101.6665,258.4692,0,U,48791,999,24440,-.28325809E-3,-.94E-6,0
ONEWEB-0227,2021-045AB,2026-06-16T23:32:33.349056,13.15548877,.00019534,87.9008,259.2294,103.2277,256.9072,0,U,48792,999,24435,-.24888111E-3,-.81E-6,0
ONEWEB-0226,2021-045AC,2026-06-16T23:23:24.360000,13.15549844,.00016997,87.9007,259.2354,99.9250,260.2073,0,U,48793,999,24432,-.46800424E-3,-.163E-5,0
ONEWEB-0224,2021-045AD,2026-06-17T00:20:27.439872,13.15547223,.00023842,87.9004,259.2617,121.9128,238.2234,0,U,48794,999,24425,.68555754E-3,.271E-5,0
ONEWEB-0233,2021-045AE,2026-06-16T22:37:35.734944,13.15547041,.00018358,87.9001,259.2833,106.1133,254.0200,0,U,48795,999,24426,.10726945E-2,.417E-5,0
ONEWEB-0190,2021-045AF,2026-06-17T07:27:08.252352,13.15546979,.00013539,87.9003,259.1722,112.1277,247.9997,0,U,48796,999,24438,.35992286E-3,.148E-5,0
ONEWEB-0236,2021-045AG,2026-06-16T22:44:38.614560,13.15548732,.00021112,87.9000,259.2540,101.5723,258.5645,0,U,48797,999,24422,.29796976E-3,.125E-5,0
ONEWEB-0248,2021-045AH,2026-06-16T23:02:53.007936,13.15547908,.00017739,87.9013,259.2351,114.6481,245.4834,0,U,48798,999,24438,-.15999698E-3,-.47E-6,0
ONEWEB-0225,2021-045AJ,2026-06-16T23:34:50.462400,13.15548698,.0001494,87.9006,259.2388,110.6922,249.4368,0,U,48799,999,24439,-.15793459E-3,-.47E-6,0
ONEWEB-0215,2021-045AK,2026-06-16T22:51:27.893088,13.15546927,.00014926,87.9014,259.2272,117.5916,242.5366,0,U,48800,999,24426,.19479153E-3,.86E-6,0
ONEWEB-0216,2021-045AL,2026-06-16T23:05:10.772736,13.15549147,.0001979,87.9011,259.2402,98.4542,261.6813,0,U,48801,999,24427,-.11066652E-3,-.29E-6,0
ONEWEB-0239,2021-045AM,2026-06-16T17:43:27.023808,13.15548787,.00016694,87.9000,259.2911,125.0143,235.1145,0,U,48802,999,24428,-.25299956E-3,-.82E-6,0
ONEWEB-0249,2021-060A,2026-06-17T14:02:12.734304,13.16595525,.00020775,87.9098,228.6992,101.3716,258.7649,0,U,48967,999,23966,-.13042988E-3,-.37E-6,0
ONEWEB-0250,2021-060B,2026-06-17T12:48:52.390944,13.25834123,.00028339,87.9097,226.4645,113.4753,246.6682,0,U,48968,999,24026,.167597E-3,.87E-6,0
ONEWEB-0252,2021-060D,2026-06-17T12:57:14.607360,13.16593743,.00018841,87.9096,228.7003,92.2448,267.8898,0,U,48970,999,23970,-.4517812E-5,.11E-6,0
ONEWEB-0253,2021-060E,2026-06-17T14:30:43.189056,13.16593485,.00020729,87.9097,228.6930,101.2645,258.8719,0,U,48971,999,23964,.52413383E-4,.33E-6,0
ONEWEB-0254,2021-060F,2026-06-17T12:54:57.875904,13.16594279,.00019033,87.9099,228.7037,106.4945,253.6395,0,U,48972,999,23963,.89531411E-4,.47E-6,0
ONEWEB-0255,2021-060G,2026-06-17T02:53:03.988320,13.16595484,.00019273,87.9098,228.7933,101.8349,258.2998,0,U,48973,999,23965,.16800498E-3,.77E-6,0
ONEWEB-0256,2021-060H,2026-06-17T14:27:18.230112,13.16586569,.00025187,87.9092,228.7017,84.5118,275.6301,0,U,48974,999,23968,-.2135196E-2,-.803E-5,0
ONEWEB-0257,2021-060J,2026-06-17T02:27:58.907232,13.16594726,.00018929,87.9098,228.7880,97.8541,262.2805,0,U,48975,999,23957,.72375355E-4,.41E-6,0
ONEWEB-0258,2021-060K,2026-06-17T02:30:15.934176,13.16594650,.00020485,87.9100,228.7994,99.2826,260.8536,0,U,48976,999,23958,.51242805E-4,.32E-6,0
ONEWEB-0259,2021-060L,2026-06-16T20:52:50.504736,13.16595415,.00020472,87.9097,228.8453,103.2272,256.9087,0,U,48977,999,23958,-.12785628E-4,.8E-7,0
ONEWEB-0260,2021-060M,2026-06-17T13:05:12.895296,13.16594283,.00019544,87.9092,228.7130,86.3232,273.8122,0,U,48978,999,23965,.23658273E-3,.103E-5,0
ONEWEB-0261,2021-060N,2026-06-17T14:11:18.601728,13.16593486,.0001736,87.9093,228.7039,100.3815,259.7512,0,U,48979,999,23971,-.57087663E-3,-.205E-5,0
ONEWEB-0262,2021-060P,2026-06-17T02:46:13.484640,13.16594807,.00020967,87.9097,228.7841,106.0760,254.0602,0,U,48980,999,23961,-.31583203E-4,.1E-7,0
ONEWEB-0263,2021-060Q,2026-06-17T14:28:26.129280,13.16594283,.00017701,87.9096,228.6991,104.2011,255.9317,0,U,48981,999,23964,.70130659E-4,.4E-6,0
ONEWEB-0264,2021-060R,2026-06-17T02:35:58.075584,13.16595458,.00018095,87.9099,228.7997,93.0812,267.0526,0,U,48982,999,23958,.34893862E-4,.26E-6,0
ONEWEB-0266,2021-060T,2026-06-17T14:03:21.592512,13.16594313,.00021451,87.9098,228.6961,98.3841,261.7533,0,U,48984,999,23963,-.65458598E-4,-.12E-6,0
ONEWEB-0267,2021-060U,2026-06-17T14:19:19.174080,13.16594347,.00018502,87.9097,228.6905,98.7021,261.4319,0,U,48985,999,23964,.42215886E-4,.29E-6,0
ONEWEB-0268,2021-060V,2026-06-17T02:37:04.959552,13.16596324,.00020322,87.9102,228.7966,93.8558,266.2805,0,U,48986,999,23984,-.71765768E-4,-.15E-6,0
ONEWEB-0269,2021-060W,2026-06-17T02:09:44.797248,13.16595052,.00021764,87.9090,228.8032,93.1587,266.9793,0,U,48987,999,23961,.14955528E-3,.7E-6,0
ONEWEB-0270,2021-060X,2026-06-17T02:34:49.618272,13.16595462,.0001856,87.9104,228.7987,107.2258,252.9076,0,U,48988,999,23965,.12055972E-3,.59E-6,0
ONEWEB-0271,2021-060Y,2026-06-17T02:16:35.345856,13.16594551,.00018042,87.9097,228.7914,101.1640,258.9694,0,U,48989,999,23965,.21853507E-3,.96E-6,0
ONEWEB-0272,2021-060Z,2026-06-17T02:48:29.614752,13.16592954,.0001852,87.9097,228.7989,91.0400,269.0943,0,U,48990,999,23960,-.58383634E-4,-.9E-7,0
ONEWEB-0273,2021-060AA,2026-06-17T14:17:02.267232,13.16594598,.00019488,87.9099,228.7032,100.9831,259.1520,0,U,48991,999,23964,-.37357605E-4,-.1E-7,0
ONEWEB-0274,2021-060AB,2026-06-17T02:07:27.583680,13.16594289,.00019236,87.9089,228.8062,89.0407,271.0944,0,U,48992,999,23961,.24894661E-3,.108E-5,0
ONEWEB-0275,2021-060AC,2026-06-17T12:48:07.681536,13.16594509,.00019343,87.9098,228.7069,96.4579,263.6772,0,U,48993,999,23960,.24720332E-3,.107E-5,0
ONEWEB-0276,2021-060AD,2026-06-17T02:39:23.027616,13.16594372,.00019752,87.9096,228.7902,93.2151,266.9206,0,U,48994,999,23956,-.10310229E-3,-.27E-6,0
ONEWEB-0277,2021-060AE,2026-06-17T02:57:38.164896,13.16594066,.00019126,87.9091,228.7966,101.2515,258.8831,0,U,48995,999,23955,.27659455E-4,.23E-6,0
ONEWEB-0278,2021-060AF,2026-06-17T02:43:55.236000,13.16592768,.00022668,87.9100,228.7885,99.3972,260.7415,0,U,48996,999,23968,-.94159523E-4,-.23E-6,0
ONEWEB-0279,2021-060AG,2026-06-17T02:55:20.754336,13.16594786,.00017824,87.9096,228.7854,97.5909,262.5425,0,U,48997,999,23961,.16704623E-4,.19E-6,0
ONEWEB-0280,2021-060AH,2026-06-17T14:13:36.729408,13.16593351,.00021523,87.9095,228.6961,107.3726,252.7640,0,U,48998,999,23961,-.28460561E-4,.2E-7,0
ONEWEB-0281,2021-060AJ,2026-06-17T14:21:35.893440,13.16594823,.00021044,87.9098,228.6902,98.2247,261.9122,0,U,48999,999,23968,.62565332E-4,.37E-6,0
ONEWEB-0282,2021-060AK,2026-06-17T02:18:50.747616,13.16592939,.00019867,87.9097,228.7982,101.4276,258.7078,0,U,49000,999,23959,.10988897E-3,.55E-6,0
ONEWEB-0283,2021-060AL,2026-06-17T12:59:31.188480,13.16593329,.00018592,87.9095,228.7093,97.7460,262.3882,0,U,49001,999,23966,-.11461009E-3,-.31E-6,0
ONEWEB-0284,2021-060AM,2026-06-17T12:50:24.387072,13.16594421,.00022323,87.9096,228.7038,104.8367,255.3012,0,U,49002,999,23964,.81351179E-4,.44E-6,0
ONEWEB-0285,2021-075A,2026-06-17T12:25:27.967584,13.12442670,.00017622,87.8948,350.5960,92.4899,267.6431,0,U,49075,999,23525,-.42585068E-3,-.14E-5,0
ONEWEB-0286,2021-075B,2026-06-17T11:59:39.802272,13.12442833,.00019775,87.8938,350.6164,86.7685,273.3669,0,U,49076,999,23460,.10227787E-2,.381E-5,0
ONEWEB-0287,2021-075C,2026-06-17T13:06:43.120224,13.17649257,.00022433,87.9134,5.7944,85.0543,275.0845,0,U,49077,999,23367,-.14271986E-3,-.43E-6,0
ONEWEB-0288,2021-075D,2026-06-17T13:15:28.941984,13.12444547,.00020644,87.8947,350.5826,92.0356,268.1009,0,U,49078,999,23523,.35109099E-4,.25E-6,0
ONEWEB-0289,2021-075E,2026-06-17T12:13:03.609120,13.17649804,.00018823,87.9137,5.8187,100.5578,259.5766,0,U,49079,999,23424,-.21557057E-4,.5E-7,0
ONEWEB-0290,2021-075F,2026-06-17T13:23:44.426112,13.17648954,.0001836,87.9142,5.7807,104.6942,255.4393,0,U,49080,999,23366,.9716735E-5,.17E-6,0
ONEWEB-0291,2021-075G,2026-06-17T13:01:52.123296,13.17649013,.00021782,87.9137,5.7914,92.9943,267.1438,0,U,49081,999,23365,.16857435E-4,.19E-6,0
ONEWEB-0293,2021-075H,2026-06-17T11:48:57.494304,13.17648651,.00018972,87.9132,5.8046,92.6895,267.4453,0,U,49082,999,23367,-.75340344E-4,-.16E-6,0
ONEWEB-0294,2021-075J,2026-06-17T11:35:27.686976,13.12444816,.00018332,87.8948,350.6001,101.3786,258.7548,0,U,49083,999,23461,.62470335E-3,.237E-5,0
